[{"OBJECT_NAME":"ONEWEB-0694","OBJECT_ID":"2023-068N","EPOCH":"2026-03-01T01:36:07.614720","MEAN_MOTION":13.16592953,"ECCENTRICITY":0.0001917,"INCLINATION":87.901,"RA_OF_ASC_NODE":250.2573,"ARG_OF_PERICENTER":82.2297,"MEAN_ANOMALY":277.9051,"EPHEMERIS_TYPE":0,"CLASSIFICATION_TYPE":"U","NORAD_CAT_ID":56722,"ELEMENT_SET_NO":999,"REV_AT_EPOCH":13754,"BSTAR":0.00030297,"MEAN_MOTION_DOT":1.29e-6,"MEAN_MOTION_DDOT":0},{"OBJECT_NAME":"ONEWEB-0696","OBJECT_ID":"2023-068P","EPOCH":"2026-03-01T04:06:36.628992","MEAN_MOTION":13.15548579,"ECCENTRICITY":0.0001562,"INCLINATION":87.8946,"RA_OF_ASC_NODE":280.7937,"ARG_OF_PERICENTER":105.4869,"MEAN_ANOMALY":254.6433,"EPHEMERIS_TYPE":0,"CLASSIFICATION_TYPE":"U","NORAD_CAT_ID":56723,"ELEMENT_SET_NO":999,"REV_AT_EPOCH":13516,"BSTAR":-5.1437e-5,"MEAN_MOTION_DOT":-7.0e-8,"MEAN_MOTION_DDOT":0},{"OBJECT_NAME":"ONEWEB-0703","OBJECT_ID":"2023-068Q","EPOCH":"2026-03-01T02:30:45.984096","MEAN_MOTION":13.15547034,"ECCENTRICITY":0.0001081,"INCLINATION":87.8949,"RA_OF_ASC_NODE":280.7876,"ARG_OF_PERICENTER":126.6094,"MEAN_ANOMALY":233.5136,"EPHEMERIS_TYPE":0,"CLASSIFICATION_TYPE":"U","NORAD_CAT_ID":56724,"ELEMENT_SET_NO":999,"REV_AT_EPOCH":13504,"BSTAR":5.4512e-5,"MEAN_MOTION_DOT":3.3e-7,"MEAN_MOTION_DDOT":0},{"OBJECT_NAME":"ONEWEB-0721","OBJECT_ID":"2023-068R","EPOCH":"2026-03-01T04:10:30.052416","MEAN_MOTION":13.22461357,"ECCENTRICITY":0.0001903,"INCLINATION":86.6776,"RA_OF_ASC_NODE":120.0046,"ARG_OF_PERICENTER":102.2195,"MEAN_ANOMALY":257.9151,"EPHEMERIS_TYPE":0,"CLASSIFICATION_TYPE":"U","NORAD_CAT_ID":56725,"ELEMENT_SET_NO":999,"REV_AT_EPOCH":14366,"BSTAR":0.00026881,"MEAN_MOTION_DOT":1.27e-6,"MEAN_MOTION_DDOT":0},{"OBJECT_NAME":"ONEWEB-0015","OBJECT_ID":"2024-188A","EPOCH":"2026-02-28T23:13:59.340288","MEAN_MOTION":13.11415871,"ECCENTRICITY":0.0001633,"INCLINATION":87.8841,"RA_OF_ASC_NODE":42.6156,"ARG_OF_PERICENTER":66.6174,"MEAN_ANOMALY":293.5125,"EPHEMERIS_TYPE":0,"CLASSIFICATION_TYPE":"U","NORAD_CAT_ID":61594,"ELEMENT_SET_NO":999,"REV_AT_EPOCH":7027,"BSTAR":-0.0012687,"MEAN_MOTION_DOT":-4.37e-6,"MEAN_MOTION_DDOT":0},{"OBJECT_NAME":"ONEWEB-0687","OBJECT_ID":"2024-188B","EPOCH":"2026-02-28T22:41:57.447456","MEAN_MOTION":13.17649314,"ECCENTRICITY":0.0002143,"INCLINATION":87.9123,"RA_OF_ASC_NODE":27.3811,"ARG_OF_PERICENTER":68.784,"MEAN_ANOMALY":291.3521,"EPHEMERIS_TYPE":0,"CLASSIFICATION_TYPE":"U","NORAD_CAT_ID":61595,"ELEMENT_SET_NO":999,"REV_AT_EPOCH":7164,"BSTAR":-7.4991e-5,"MEAN_MOTION_DOT":-1.6e-7,"MEAN_MOTION_DDOT":0},{"OBJECT_NAME":"ONEWEB-0688","OBJECT_ID":"2024-188C","EPOCH":"2026-02-28T23:23:16.185696","MEAN_MOTION":13.17649399,"ECCENTRICITY":0.0001641,"INCLINATION":87.9123,"RA_OF_ASC_NODE":27.3749,"ARG_OF_PERICENTER":39.9628,"MEAN_ANOMALY":320.1624,"EPHEMERIS_TYPE":0,"CLASSIFICATION_TYPE":"U","NORAD_CAT_ID":61596,"ELEMENT_SET_NO":999,"REV_AT_EPOCH":7164,"BSTAR":-0.0001716,"MEAN_MOTION_DOT":-5.4e-7,"MEAN_MOTION_DDOT":0},{"OBJECT_NAME":"ONEWEB-0689","OBJECT_ID":"2024-188D","EPOCH":"2026-03-01T00:02:49.745760","MEAN_MOTION":13.11417101,"ECCENTRICITY":0.0001955,"INCLINATION":87.8858,"RA_OF_ASC_NODE":42.5476,"ARG_OF_PERICENTER":78.4632,"MEAN_ANOMALY":281.6715,"EPHEMERIS_TYPE":0,"CLASSIFICATION_TYPE":"U","NORAD_CAT_ID":61597,"ELEMENT_SET_NO":999,"REV_AT_EPOCH":7027,"BSTAR":0.00092455,"MEAN_MOTION_DOT":3.4e-6,"MEAN_MOTION_DDOT":0},{"OBJECT_NAME":"ONEWEB-0690","OBJECT_ID":"2024-188E","EPOCH":"2026-03-01T00:17:29.138784","MEAN_MOTION":13.11415625,"ECCENTRICITY":0.0001494,"INCLINATION":87.8858,"RA_OF_ASC_NODE":42.5662,"ARG_OF_PERICENTER":105.2838,"MEAN_ANOMALY":254.8456,"EPHEMERIS_TYPE":0,"CLASSIFICATION_TYPE":"U","NORAD_CAT_ID":61598,"ELEMENT_SET_NO":999,"REV_AT_EPOCH":7045,"BSTAR":0.0014817,"MEAN_MOTION_DOT":5.38e-6,"MEAN_MOTION_DDOT":0},{"OBJECT_NAME":"ONEWEB-0691","OBJECT_ID":"2024-188F","EPOCH":"2026-02-28T22:20:17.338272","MEAN_MOTION":13.11416151,"ECCENTRICITY":0.0001775,"INCLINATION":87.8861,"RA_OF_ASC_NODE":42.4822,"ARG_OF_PERICENTER":71.0135,"MEAN_ANOMALY":289.1185,"EPHEMERIS_TYPE":0,"CLASSIFICATION_TYPE":"U","NORAD_CAT_ID":61599,"ELEMENT_SET_NO":999,"REV_AT_EPOCH":7029,"BSTAR":0.0014449,"MEAN_MOTION_DOT":5.25e-6,"MEAN_MOTION_DDOT":0},{"OBJECT_NAME":"ONEWEB-0692","OBJECT_ID":"2024-188G","EPOCH":"2026-03-01T00:39:27.163872","MEAN_MOTION":13.11413675,"ECCENTRICITY":0.0002678,"INCLINATION":87.8843,"RA_OF_ASC_NODE":42.5971,"ARG_OF_PERICENTER":95.6656,"MEAN_ANOMALY":264.4778,"EPHEMERIS_TYPE":0,"CLASSIFICATION_TYPE":"U","NORAD_CAT_ID":61600,"ELEMENT_SET_NO":999,"REV_AT_EPOCH":7029,"BSTAR":0.00057685,"MEAN_MOTION_DOT":2.17e-6,"MEAN_MOTION_DDOT":0},{"OBJECT_NAME":"ONEWEB-0693","OBJECT_ID":"2024-188H","EPOCH":"2026-02-28T23:40:16.384800","MEAN_MOTION":13.17650805,"ECCENTRICITY":0.0001187,"INCLINATION":87.9123,"RA_OF_ASC_NODE":27.3942,"ARG_OF_PERICENTER":100.9037,"MEAN_ANOMALY":259.2228,"EPHEMERIS_TYPE":0,"CLASSIFICATION_TYPE":"U","NORAD_CAT_ID":61601,"ELEMENT_SET_NO":999,"REV_AT_EPOCH":7163,"BSTAR":6.3532e-5,"MEAN_MOTION_DOT":3.8e-7,"MEAN_MOTION_DDOT":0},{"OBJECT_NAME":"ONEWEB-0695","OBJECT_ID":"2024-188J","EPOCH":"2026-03-01T00:05:17.428416","MEAN_MOTION":13.11418207,"ECCENTRICITY":0.0002412,"INCLINATION":87.8843,"RA_OF_ASC_NODE":42.5925,"ARG_OF_PERICENTER":84.3555,"MEAN_ANOMALY":275.7848,"EPHEMERIS_TYPE":0,"CLASSIFICATION_TYPE":"U","NORAD_CAT_ID":61602,"ELEMENT_SET_NO":999,"REV_AT_EPOCH":7028,"BSTAR":0.001019,"MEAN_MOTION_DOT":3.74e-6,"MEAN_MOTION_DDOT":0},{"OBJECT_NAME":"ONEWEB-0697","OBJECT_ID":"2024-188K","EPOCH":"2026-02-28T23:01:47.260128","MEAN_MOTION":13.11413482,"ECCENTRICITY":0.0002543,"INCLINATION":87.8842,"RA_OF_ASC_NODE":42.5908,"ARG_OF_PERICENTER":95.9561,"MEAN_ANOMALY":264.1857,"EPHEMERIS_TYPE":0,"CLASSIFICATION_TYPE":"U","NORAD_CAT_ID":61603,"ELEMENT_SET_NO":999,"REV_AT_EPOCH":7026,"BSTAR":-0.00051942,"MEAN_MOTION_DOT":-1.71e-6,"MEAN_MOTION_DDOT":0},{"OBJECT_NAME":"ONEWEB-0698","OBJECT_ID":"2024-188L","EPOCH":"2026-03-01T00:19:55.717248","MEAN_MOTION":13.1141522,"ECCENTRICITY":0.0002318,"INCLINATION":87.8844,"RA_OF_ASC_NODE":42.5955,"ARG_OF_PERICENTER":115.4396,"MEAN_ANOMALY":244.6972,"EPHEMERIS_TYPE":0,"CLASSIFICATION_TYPE":"U","NORAD_CAT_ID":61604,"ELEMENT_SET_NO":999,"REV_AT_EPOCH":7029,"BSTAR":0.0013732,"MEAN_MOTION_DOT":4.99e-6,"MEAN_MOTION_DDOT":0},{"OBJECT_NAME":"ONEWEB-0699","OBJECT_ID":"2024-188M","EPOCH":"2026-03-01T00:24:22.793472","MEAN_MOTION":13.10372562,"ECCENTRICITY":0.000239,"INCLINATION":87.8767,"RA_OF_ASC_NODE":57.8055,"ARG_OF_PERICENTER":99.212,"MEAN_ANOMALY":260.9277,"EPHEMERIS_TYPE":0,"CLASSIFICATION_TYPE":"U","NORAD_CAT_ID":61605,"ELEMENT_SET_NO":999,"REV_AT_EPOCH":6914,"BSTAR":-0.0017751,"MEAN_MOTION_DOT":-6.07e-6,"MEAN_MOTION_DDOT":0},{"OBJECT_NAME":"ONEWEB-0700","OBJECT_ID":"2024-188N","EPOCH":"2026-03-01T00:26:45.864096","MEAN_MOTION":13.10372678,"ECCENTRICITY":0.0002549,"INCLINATION":87.8779,"RA_OF_ASC_NODE":57.6987,"ARG_OF_PERICENTER":89.911,"MEAN_ANOMALY":270.2309,"EPHEMERIS_TYPE":0,"CLASSIFICATION_TYPE":"U","NORAD_CAT_ID":61606,"ELEMENT_SET_NO":999,"REV_AT_EPOCH":6913,"BSTAR":-0.0017767,"MEAN_MOTION_DOT":-6.08e-6,"MEAN_MOTION_DDOT":0}]
