ONEWEB-0694             
1 56722U 23068N   26060.06675480  .00000129  00000+0  30297-3 0  9996
2 56722  87.9010 250.2573 0001917  82.2297 277.9051 13.16592953137546
ONEWEB-0696             
1 56723U 23068P   26060.17125728 -.00000007  00000+0 -51437-4 0  9991
2 56723  87.8946 280.7937 0001562 105.4869 254.6433 13.15548579135161
ONEWEB-0703             
1 56724U 23068Q   26060.10469889  .00000033  00000+0  54512-4 0  9998
2 56724  87.8949 280.7876 0001081 126.6094 233.5136 13.15547034135046
ONEWEB-0721             
1 56725U 23068R   26060.17395894  .00000127  00000+0  26881-3 0  9991
2 56725  86.6776 120.0046 0001903 102.2195 257.9151 13.22461357143667
ONEWEB-0015             
1 61594U 24188A   26059.96804792 -.00000437  00000+0 -12687-2 0  9996
2 61594  87.8841  42.6156 0001633  66.6174 293.5125 13.11415871 70275
ONEWEB-0687             
1 61595U 24188B   26059.94580379 -.00000016  00000+0 -74991-4 0  9998
2 61595  87.9123  27.3811 0002143  68.7840 291.3521 13.17649314 71643
ONEWEB-0688             
1 61596U 24188C   26059.97449289 -.00000054  00000+0 -17160-3 0  9992
2 61596  87.9123  27.3749 0001641  39.9628 320.1624 13.17649399 71648
ONEWEB-0689             
1 61597U 24188D   26060.00196465  .00000340  00000+0  92455-3 0  9990
2 61597  87.8858  42.5476 0001955  78.4632 281.6715 13.11417101 70278
ONEWEB-0690             
1 61598U 24188E   26060.01214281  .00000538  00000+0  14817-2 0  9993
2 61598  87.8858  42.5662 0001494 105.2838 254.8456 13.11415625 70454
ONEWEB-0691             
1 61599U 24188F   26059.93075623  .00000525  00000+0  14449-2 0  9995
2 61599  87.8861  42.4822 0001775  71.0135 289.1185 13.11416151 70295
ONEWEB-0692             
1 61600U 24188G   26060.02739773  .00000217  00000+0  57685-3 0  9991
2 61600  87.8843  42.5971 0002678  95.6656 264.4778 13.11413675 70299
ONEWEB-0693             
1 61601U 24188H   26059.98630075  .00000038  00000+0  63532-4 0  9990
2 61601  87.9123  27.3942 0001187 100.9037 259.2228 13.17650805 71633
ONEWEB-0695             
1 61602U 24188J   26060.00367394  .00000374  00000+0  10190-2 0  9990
2 61602  87.8843  42.5925 0002412  84.3555 275.7848 13.11418207 70287
ONEWEB-0697             
1 61603U 24188K   26059.95957477 -.00000171  00000+0 -51942-3 0  9998
2 61603  87.8842  42.5908 0002543  95.9561 264.1857 13.11413482 70268
ONEWEB-0698             
1 61604U 24188L   26060.01383932  .00000499  00000+0  13732-2 0  9992
2 61604  87.8844  42.5955 0002318 115.4396 244.6972 13.11415220 70293
ONEWEB-0699             
1 61605U 24188M   26060.01693048 -.00000607  00000+0 -17751-2 0  9993
2 61605  87.8767  57.8055 0002390  99.2120 260.9277 13.10372562 69143
ONEWEB-0700             
1 61606U 24188N   26060.01858639 -.00000608  00000+0 -17767-2 0  9991
2 61606  87.8779  57.6987 0002549  89.9110 270.2309 13.10372678 69137
